STARLINK-1047           
1 44752U 19074AR  26068.49630605  .00012216  00000+0  39384-3 0  9999
2 44752  53.0690 146.9116 0002226 203.7253 156.3646 15.32581056349316
STARLINK-36130          
1 66931U 25286G   26068.07736002  .00037248  00000+0  12635-2 0  9997
2 66931  53.1622   1.2527 0000666 111.3589 248.7483 15.30197984 15323
